CCSDS_OMM_VERS,COMMENT,CREATION_DATE,ORIGINATOR,OBJECT_NAME,OBJECT_ID,CENTER_NAME,REF_FRAME,TIME_SYSTEM,MEAN_ELEMENT_THEORY,EPOCH,MEAN_MOTION,ECCENTRICITY,INCLINATION,RA_OF_ASC_NODE,ARG_OF_PERICENTER,MEAN_ANOMALY,EPHEMERIS_TYPE,CLASSIFICATION_TYPE,NORAD_CAT_ID,ELEMENT_SET_NO,REV_AT_EPOCH,BSTAR,MEAN_MOTION_DOT,MEAN_MOTION_DDOT,SEMIMAJOR_AXIS,PERIOD,APOAPSIS,PERIAPSIS,OBJECT_TYPE,RCS_SIZE,COUNTRY_CODE,LAUNCH_DATE,SITE,DECAY_DATE,FILE,GP_ID,TLE_LINE0,TLE_LINE1,TLE_LINE2
"2.0","GENERATED VIA SPACE-TRACK.ORG API","2023-01-03T02:40:54","18 SPCS","ARIANE 2 DEB","1988-040G","EARTH","TEME","UTC","SGP4","2023-01-02T18:15:53.899200","2.32188301","0.71413140","7.3828","129.0794","191.9962","355.1041","0","U","33533","999","15414","0.00914770000000","0.00001171","0.0000000000000","24090.267","620.186","34915.749","508.516","DEBRIS","MEDIUM","FR","1988-05-17","FRGUI","","3729873","222054129","0 ARIANE 2 DEB","1 33533U 88040G   23002.76104050  .00001171  00000-0  91477-2 0  9997","2 33533   7.3828 129.0794 7141314 191.9962 355.1041  2.32188301154149"
"2.0","GENERATED VIA SPACE-TRACK.ORG API","2023-01-02T17:42:09","18 SPCS","ARIANE 2 DEB","1988-040G","EARTH","TEME","UTC","SGP4","2023-01-02T13:21:56.541024","2.32187493","0.71412900","7.3819","129.1595","191.8372","184.4715","0","U","33533","999","15414","0.00857800000000","0.00001092","0.0000000000000","24090.323","620.188","34915.787","508.590","DEBRIS","MEDIUM","FR","1988-05-17","FRGUI","","3729583","222020086","0 ARIANE 2 DEB","1 33533U 88040G   23002.55690441  .00001092  00000-0  85780-2 0  9990","2 33533   7.3819 129.1595 7141290 191.8372 184.4715  2.32187493154148"
"2.0","GENERATED VIA SPACE-TRACK.ORG API","2023-01-02T23:26:13","18 SPCS","ARIANE 2 DEB","1988-040G","EARTH","TEME","UTC","SGP4","2023-01-02T18:15:53.899200","2.32188301","0.71413140","7.3828","129.0794","191.9962","355.1041","0","U","33533","999","15449","0.00914770000000","0.00001171","0.0000000000000","24090.267","620.186","34915.749","508.516","DEBRIS","MEDIUM","FR","1988-05-17","FRGUI","","3729673","222036909","0 ARIANE 2 DEB","1 33533U 88040G   23002.76104050  .00001171  00000-0  91477-2 0  9997","2 33533   7.3828 129.0794 7141314 191.9962 355.1041  2.32188301154497"
"2.0","GENERATED VIA SPACE-TRACK.ORG API","2023-01-01T17:55:23","18 SPCS","ARIANE 2 DEB","1988-040G","EARTH","TEME","UTC","SGP4","2023-01-01T13:07:34.209408","2.32184243","0.71412590","7.3781","129.5541","191.0521","60.2626","0","U","33533","999","15411","0.00871920000000","0.00001137","0.0000000000000","24090.548","620.197","34916.097","508.729","DEBRIS","MEDIUM","FR","1988-05-17","FRGUI","","3728759","221920409","0 ARIANE 2 DEB","1 33533U 88040G   23001.54692372  .00001137  00000-0  87192-2 0  9992","2 33533   7.3781 129.5541 7141259 191.0521  60.2626  2.32184243154113"
"2.0","GENERATED VIA SPACE-TRACK.ORG API","2023-01-02T02:38:49","18 SPCS","ARIANE 2 DEB","1988-040G","EARTH","TEME","UTC","SGP4","2023-01-01T14:48:44.238816","2.32184652","0.71412580","7.3784","129.5271","191.1061","118.9861","0","U","33533","999","15411","0.00919580000000","0.00001205","0.0000000000000","24090.520","620.196","34916.046","508.723","DEBRIS","MEDIUM","FR","1988-05-17","FRGUI","","3728952","221977265","0 ARIANE 2 DEB","1 33533U 88040G   23001.61717869  .00001205  00000-0  91958-2 0  9990","2 33533   7.3784 129.5271 7141258 191.1061 118.9861  2.32184652154111"
"2.0","GENERATED VIA SPACE-TRACK.ORG API","2023-01-02T23:46:13","18 SPCS","ARIANE 2 DEB","1988-040H","EARTH","TEME","UTC","SGP4","2023-01-01T08:42:15.042240","2.31259660","0.71547120","7.4249","93.2829","263.2026","18.1297","0","U","33534","999","15287","0.00348000000000","0.00000561","0.0000000000000","24154.715","622.677","35058.583","494.577","DEBRIS","MEDIUM","FR","1988-05-17","FRGUI","","3729706","222037669","0 ARIANE 2 DEB","1 33534U 88040H   23001.36267410  .00000561  00000-0  34800-2 0  9992","2 33534   7.4249  93.2829 7154712 263.2026  18.1297  2.31259660152872"
"2.0","GENERATED VIA SPACE-TRACK.ORG API","2023-01-03T02:40:54","18 SPCS","ARIANE 2 DEB","1988-040H","EARTH","TEME","UTC","SGP4","2023-01-01T08:42:15.042240","2.31259660","0.71547120","7.4249","93.2829","263.2026","18.1297","0","U","33534","999","15283","0.00348000000000","0.00000561","0.0000000000000","24154.715","622.677","35058.583","494.577","DEBRIS","MEDIUM","FR","1988-05-17","FRGUI","","3729873","222052362","0 ARIANE 2 DEB","1 33534U 88040H   23001.36267410  .00000561  00000-0  34800-2 0  9992","2 33534   7.4249  93.2829 7154712 263.2026  18.1297  2.31259660152838"
"2.0","GENERATED VIA SPACE-TRACK.ORG API","2023-01-02T02:16:14","18 SPCS","ARIANE 3 DEB","1988-081L","EARTH","TEME","UTC","SGP4","2023-01-01T21:55:56.546688","2.15564406","0.69369930","6.7147","304.9502","108.3647","352.0260","0","U","33536","999","14766","0.00000000000000","-0.00000082","0.0000000000000","25313.400","668.014","36495.152","1375.377","DEBRIS","SMALL","FR","1988-09-08","FRGUI","","3728919","221966219","0 ARIANE 3 DEB","1 33536U 88081L   23001.91384892 -.00000082  00000-0  00000+0 0  9995","2 33536   6.7147 304.9502 6936993 108.3647 352.0260  2.15564406147669"
"2.0","GENERATED VIA SPACE-TRACK.ORG API","2023-01-01T17:55:23","18 SPCS","ARIANE 3 DEB","1988-081L","EARTH","TEME","UTC","SGP4","2023-01-01T00:32:27.378240","2.15559670","0.69368900","6.7155","305.2067","107.8518","20.3347","0","U","33536","999","14628","0.00000000000000","-0.00000103","0.0000000000000","25313.770","668.028","36495.519","1375.751","DEBRIS","SMALL","FR","1988-09-08","FRGUI","","3728759","221921648","0 ARIANE 3 DEB","1 33536U 88081L   23001.02253910 -.00000103  00000-0  00000-0 0  9998","2 33536   6.7155 305.2067 6936890 107.8518  20.3347  2.15559670146280"
"2.0","GENERATED VIA SPACE-TRACK.ORG API","2023-01-02T02:38:49","18 SPCS","ARIANE 3 DEB","1988-081L","EARTH","TEME","UTC","SGP4","2023-01-01T21:55:56.546688","2.15564406","0.69369930","6.7147","304.9502","108.3647","352.0260","0","U","33536","999","14630","0.00000000000000","-0.00000082","0.0000000000000","25313.400","668.014","36495.152","1375.377","DEBRIS","SMALL","FR","1988-09-08","FRGUI","","3728952","221977015","0 ARIANE 3 DEB","1 33536U 88081L   23001.91384892 -.00000082  00000-0  00000-0 0  9996","2 33536   6.7147 304.9502 6936993 108.3647 352.0260  2.15564406146309"
"2.0","GENERATED VIA SPACE-TRACK.ORG API","2023-01-01T17:55:23","18 SPCS","ARIANE 3 DEB","1988-081M","EARTH","TEME","UTC","SGP4","2023-01-01T06:05:19.737024","2.16894889","0.69883210","6.3297","138.6604","61.7103","34.7602","0","U","33537","999","7721","0.00000000000000","0.00000011","0.0000000000000","25209.775","663.916","36449.039","1214.240","DEBRIS","MEDIUM","FR","1988-09-08","FRGUI","","3728759","221919905","0 ARIANE 3 DEB","1 33537U 88081M   23001.25370066  .00000011  00000-0  00000-0 0  9993","2 33537   6.3297 138.6604 6988321  61.7103  34.7602  2.16894889 77217"
"2.0","GENERATED VIA SPACE-TRACK.ORG API","2023-01-01T22:56:13","18 SPCS","ARIANE 3 DEB","1988-081M","EARTH","TEME","UTC","SGP4","2023-01-01T17:21:03.509856","2.16895018","0.69884030","6.3294","138.5076","62.0059","41.1664","0","U","33537","999","13670","0.00000000000000","0.00000012","0.0000000000000","25209.765","663.916","36449.229","1214.030","DEBRIS","MEDIUM","FR","1988-09-08","FRGUI","","3728824","221963952","0 ARIANE 3 DEB","1 33537U 88081M   23001.72295729  .00000012  00000-0  00000+0 0  9997","2 33537   6.3294 138.5076 6988403  62.0059  41.1664  2.16895018136706"
"2.0","GENERATED VIA SPACE-TRACK.ORG API","2023-01-03T02:40:54","18 SPCS","ARIANE 3 DEB","1988-081M","EARTH","TEME","UTC","SGP4","2023-01-02T15:52:03.684000","2.16895148","0.69884640","6.3286","138.1985","62.5992","53.7290","0","U","33537","999","7724","0.00000000000000","0.00000008","0.0000000000000","25209.755","663.915","36449.366","1213.873","DEBRIS","MEDIUM","FR","1988-09-08","FRGUI","","3729873","222053616","0 ARIANE 3 DEB","1 33537U 88081M   23002.66115375  .00000008  00000-0  00000-0 0  9995","2 33537   6.3286 138.1985 6988464  62.5992  53.7290  2.16895148 77241"
"2.0","GENERATED VIA SPACE-TRACK.ORG API","2023-01-02T17:42:09","18 SPCS","ARIANE 3 DEB","1988-081M","EARTH","TEME","UTC","SGP4","2023-01-02T04:36:38.164032","2.16895123","0.69884350","6.3290","138.3530","62.3026","47.4898","0","U","33537","999","7723","0.00000000000000","0.00000011","0.0000000000000","25209.756","663.915","36449.296","1213.947","DEBRIS","MEDIUM","FR","1988-09-08","FRGUI","","3729583","222020586","0 ARIANE 3 DEB","1 33537U 88081M   23002.19210838  .00000011  00000-0  00000-0 0  9997","2 33537   6.3290 138.3530 6988435  62.3026  47.4898  2.16895123 77234"
"2.0","GENERATED VIA SPACE-TRACK.ORG API","2023-01-02T02:38:49","18 SPCS","ARIANE 3 DEB","1988-081M","EARTH","TEME","UTC","SGP4","2023-01-01T17:21:03.509856","2.16895018","0.69884030","6.3294","138.5076","62.0059","41.1664","0","U","33537","999","7722","0.00000000000000","0.00000012","0.0000000000000","25209.765","663.916","36449.229","1214.030","DEBRIS","MEDIUM","FR","1988-09-08","FRGUI","","3728952","221977769","0 ARIANE 3 DEB","1 33537U 88081M   23001.72295729  .00000012  00000-0  00000-0 0  9998","2 33537   6.3294 138.5076 6988403  62.0059  41.1664  2.16895018 77227"
"2.0","GENERATED VIA SPACE-TRACK.ORG API","2023-01-02T22:36:13","18 SPCS","ARIANE 3 DEB","1988-081N","EARTH","TEME","UTC","SGP4","2023-01-02T13:21:46.428768","2.23734961","0.71859910","6.9574","110.5151","89.6005","2.2438","0","U","33538","999","14216","0.00089475000000","0.00000095","0.0000000000000","24693.308","643.619","36059.762","570.584","DEBRIS","SMALL","FR","1988-09-08","FRGUI","","3729600","222035266","0 ARIANE 3 DEB","1 33538U 88081N   23002.55678737  .00000095  00000-0  89475-3 0  9992","2 33538   6.9574 110.5151 7185991  89.6005   2.2438  2.23734961142167"
